[["observe", {"vessel_name": "#autoLOC_501232", "vessel_type": "VesselSituation.landed", "vessel_situation": "VesselSituation.landed", "mission_time": 1763152148.958553, "universal_time": 1819.5199999986353, "current_body": "Kerbin", "position": {"x": 0.0, "y": 0.0, "z": 0.0}, "velocity": {"x": 0.0, "y": 0.0, "z": 0.0}, "altitude": 80.71663568797521, "surface_altitude": 8.323923560557887, "speed": 0.0, "vertical_speed": 0, "g_force": 0, "orbit_parameters": {"apoapsis_altitude": 80.77989395754412, "periapsis_altitude": -598437.3535551509, "inclination": 0.0016969328275691453, "eccentricity": 0.9948054067361518, "period": 0, "time_to_apoapsis": 0, "time_to_periapsis": 0}, "resources": {"LiquidFuel": {"amount": 7176.515625, "max": 7200.0}, "ElectricCharge": {"amount": 950.0, "max": 950.0}}, "vessel_status": {"mass": 110844.0625, "dry_mass": 0, "thrust": 0.0, "available_thrust": 2054293.125, "max_thrust": 2054293.125, "specific_impulse": 0, "control_state": {"throttle": 0.0, "sas": false, "rcs": false, "gear": false, "lights": false, "brakes": false}}, "mechjeb_status": {"api_ready": true, "ascent_status": "Off"}, "part_status": {"part_count": 56, "stage_count": 0, "current_stage": 6}, "nearby_vessels": [], "comprehensive_telemetry": {"timestamp": 1763152150.3719559, "basic_vessel": {"name": "#autoLOC_501232", "type": "VesselType.ship", "situation": "VesselSituation.landed", "mass": 110844.0625, "dry_mass": 30585.0, "crew_count": 3, "crew_capacity": 3, "biome": "Shores", "recoverable": true, "met": 1.5599999999985812}, "performance": {"thrust": 0.0, "max_thrust": 2054291.5, "max_vacuum_thrust": 2360000.0, "specific_impulse": 272.95166015625, "kerbin_sea_level_specific_impulse": 272.4900817871094, "vacuum_specific_impulse": 313.20965576171875}, "torque": {"available_control_surface_torque": [[0.19964772218372673, -0.7326441918849014, -0.9322918418703807], [-0.07310637192858849, 0.49099473108071834, 0.5641011267414342]], "available_engine_torque": [[0.0, 0.0, 0.0], [0.0, 0.0, 0.0]], "available_rcs_torque": [[0.0, 0.0, 0.0], [0.0, 0.0, 0.0]], "available_reaction_wheel_torque": [[15000.0, 15000.0, 15000.0], [-15000.0, -15000.0, -15000.0]], "available_thrust": 2054291.375, "available_torque": [[15000.226990589796, 14999.17192254361, 14998.944932096201], [-15000.15140924188, -14999.702298977809, -14999.550889722368]]}, "position_velocity": {"position_vessel": [0.0, 0.0, 0.0], "velocity_vessel": [0.0, 0.0, 0.0], "position_orbital": [0.0, -0.0, 0.0], "velocity_orbital": [0.0, -0.0, 0.0], "position_surface": [0.0, 0.0, -0.0], "velocity_surface": [0.0, 0.0, -0.0], "speed": 0.0, "horizontal_speed": 0.0, "vertical_speed": 0.0, "equivalent_air_speed": 0.13887512683868408, "true_air_speed": 0.1296870857477188, "terminal_velocity": 203.30599975585938}, "altitude_location": {"mean_altitude": 80.71949353837408, "surface_altitude": 8.262835598434322, "bedrock_altitude": 8.262835598434322, "latitude": -0.09720666265619324, "longitude": -74.55768999399925, "elevation": 72.45717853435781}, "aerodynamics": {"atmosphere_density": 1.1126161813735962, "dynamic_pressure": 0.0046582818031311035, "static_pressure": 100118.7421875, "static_pressure_at_msl": 101325.0, "drag": [-0.005281342689877763, -0.13537809700003373, -0.14501756026749885], "lift": [-0.11462053838240512, 0.016771526109595643, 0.000868687466913691], "mach": 0.0003548621607478708, "drag_coefficient": null, "lift_coefficient": null, "ballistic_coefficient": null, "reynolds_number": null}, "orientation": {"heading": 264.0633544921875, "pitch": 89.587890625, "roll": -97.04639434814453, "direction": [0.9999741425463244, -0.000858302003296958, -0.00713985689032989], "rotation": [-0.5009941457528633, -0.4970384933082765, -0.49948459079028473, 0.5024666163021101], "angle_of_attack": -51.243804931640625, "sideslip_angle": 29.807458877563477}, "flight_dynamics": {"g_force": 0.9890464544296265, "center_of_mass": [0.0, 0.0, 0.0], "aerodynamic_force": [-0.11566085017920857, 1.2689363070002018, -2.0322932371952573], "thrust_specific_fuel_consumption": null, "stall_fraction": null}, "reference_vectors": {"prograde": [-1.2993425539176151e-05, -0.00034058612353182554, 0.9999999419161322], "retrograde": [-4.952531834745422e-06, 0.00032323091799638717, -0.9999999477486228], "normal": [1.8848644768999605e-09, 0.9999999477640833, 0.0003232210243869027], "anti_normal": [-7.426242780439463e-16, -0.9999999582446306, -0.0002889822437589824], "radial": [0.9999999996118771, 8.051390011729748e-09, -2.7861194214273688e-05], "anti_radial": [-0.9999999992295323, -8.425144657452088e-09, 3.9254728045223786e-05]}, "reference_frames": {"reference_frames": {"vessel": {"position": [-0.0, 0.0, 0.0], "velocity": [-0.0, 0.0, 0.0], "description": "Vessel-relative coordinates (X=right, Y=forward, Z=up)"}, "orbital": {"position": [0.0, -0.0, 0.0], "velocity": [0.0, 0.0, 0.0], "description": "Orbital coordinates (X=anti-radial, Y=prograde, Z=normal)"}, "surface": {"position": [0.0, 0.0, 0.0], "velocity": [0.0, 0.0, 0.0], "description": "Surface coordinates (X=zenith, Y=north, Z=east)"}}, "coordinate_systems": {"vessel_available": true, "orbital_available": true, "surface_available": true}}, "orbital": {"semi_major_axis": 300824.00424190605, "semi_minor_axis": 30668.61062213411, "eccentricity": 0.9947894200691487, "inclination": 0.0017061696236160056, "longitude_of_ascending_node": 2.2381449606319936, "argument_of_periapsis": 1.7852034274382163, "mean_anomaly": 3.1418278717712065, "eccentric_anomaly": -3.1413605432307388, "true_anomaly": -3.1415749469944845, "apoapsis": 600086.8948640523, "periapsis": 1568.8055434487094, "apoapsis_altitude": 86.89486405230127, "periapsis_altitude": -598431.1944565513, "period": 551.6595927496696, "orbital_speed": 0.0, "speed": 175.18972213734173, "radius": 600086.8631339343, "time_to_apoapsis": 551.5589382104326, "time_to_periapsis": 275.72914322641003, "time_to_soi_change": NaN, "epoch": 1820.5399999990814, "mean_anomaly_at_epoch": 3.142739037439677, "body_name": "Kerbin"}, "control": {"pitch": 0.0, "yaw": 0.0, "roll": 0.0, "throttle": 0.0, "forward": -0.0, "up": 0.0, "right": -0.0, "sas": false, "rcs": false, "brakes": false, "gear": false, "lights": false, "abort": false, "custom_axis01": 0.0, "custom_axis02": 0.0, "custom_axis03": 0.0, "custom_axis04": 0.0, "wheel_steering": 0.0, "wheel_throttle": 0.0, "state": "ControlState.full", "source": "ControlSource.kerbal", "current_stage": 4, "stage_lock": false, "sas_mode": "SASMode.stability_assist", "input_mode": "ControlInputMode.additive"}, "resources": {"ElectricCharge": {"amount": 950.0, "max": 950.0, "flow_mode": null, "density": null}, "MonoPropellant": {"amount": 30.0, "max": 30.0, "flow_mode": null, "density": null}, "Ablator": {"amount": 400.0, "max": 800.0, "flow_mode": null, "density": null}, "LiquidFuel": {"amount": 2160.0, "max": 2160.0, "flow_mode": null, "density": null}, "Oxidizer": {"amount": 2640.0, "max": 2640.0, "flow_mode": null, "density": null}}}, "execution_time": 14.153042078018188}]]